[
  {
    "OBJECT_NAME": "IRIDIUM 118",
    "OBJECT_ID": "2017-039E",
    "EPOCH": "2023-03-23T12:06:38.942496",
    "MEAN_MOTION": 14.34218831,
    "ECCENTRICITY": 0.0002349,
    "INCLINATION": 86.3954,
    "RA_OF_ASC_NODE": 127.5343,
    "ARG_OF_PERICENTER": 93.0231,
    "MEAN_ANOMALY": 267.1234,
    "EPHEMERIS_TYPE": 0,
    "CLASSIFICATION_TYPE": "U",
    "NORAD_CAT_ID": 42807,
    "ELEMENT_SET_NO": 999,
    "REV_AT_EPOCH": 30058,
    "BSTAR": 0.00015005,
    "MEAN_MOTION_DOT": 4.4e-6,
    "MEAN_MOTION_DDOT": 0
  },
  {
    "OBJECT_NAME": "IRIDIUM 117",
    "OBJECT_ID": "2017-039F",
    "EPOCH": "2023-03-23T04:11:43.148544",
    "MEAN_MOTION": 14.34218648,
    "ECCENTRICITY": 0.0002149,
    "INCLINATION": 86.3952,
    "RA_OF_ASC_NODE": 127.6402,
    "ARG_OF_PERICENTER": 96.3983,
    "MEAN_ANOMALY": 263.7458,
    "EPHEMERIS_TYPE": 0,
    "CLASSIFICATION_TYPE": "U",
    "NORAD_CAT_ID": 42808,
    "ELEMENT_SET_NO": 999,
    "REV_AT_EPOCH": 30056,
    "BSTAR": 0.00015278,
    "MEAN_MOTION_DOT": 4.48e-6,
    "MEAN_MOTION_DDOT": 0
  },
  {
    "OBJECT_NAME": "IRIDIUM 126",
    "OBJECT_ID": "2017-039G",
    "EPOCH": "2023-03-23T13:10:34.823424",
    "MEAN_MOTION": 14.34219325,
    "ECCENTRICITY": 0.0002113,
    "INCLINATION": 86.3954,
    "RA_OF_ASC_NODE": 127.5162,
    "ARG_OF_PERICENTER": 90.6974,
    "MEAN_ANOMALY": 269.4463,
    "EPHEMERIS_TYPE": 0,
    "CLASSIFICATION_TYPE": "U",
    "NORAD_CAT_ID": 42809,
    "ELEMENT_SET_NO": 999,
    "REV_AT_EPOCH": 30059,
    "BSTAR": 0.00020829,
    "MEAN_MOTION_DOT": 6.03e-6,
    "MEAN_MOTION_DDOT": 0
  },
  {
    "OBJECT_NAME": "IRIDIUM 124",
    "OBJECT_ID": "2017-039H",
    "EPOCH": "2023-03-22T21:24:50.906304",
    "MEAN_MOTION": 14.43279832,
    "ECCENTRICITY": 0.0002335,
    "INCLINATION": 86.4463,
    "RA_OF_ASC_NODE": 64.4883,
    "ARG_OF_PERICENTER": 98.3369,
    "MEAN_ANOMALY": 261.8097,
    "EPHEMERIS_TYPE": 0,
    "CLASSIFICATION_TYPE": "U",
    "NORAD_CAT_ID": 42810,
    "ELEMENT_SET_NO": 999,
    "REV_AT_EPOCH": 30458,
    "BSTAR": 9.7256e-5,
    "MEAN_MOTION_DOT": 3.47e-6,
    "MEAN_MOTION_DDOT": 0
  },
  {
    "OBJECT_NAME": "IRIDIUM 128",
    "OBJECT_ID": "2017-039J",
    "EPOCH": "2023-03-22T16:51:38.690496",
    "MEAN_MOTION": 14.34218527,
    "ECCENTRICITY": 0.0001935,
    "INCLINATION": 86.4023,
    "RA_OF_ASC_NODE": 159.3698,
    "ARG_OF_PERICENTER": 95.4378,
    "MEAN_ANOMALY": 264.7039,
    "EPHEMERIS_TYPE": 0,
    "CLASSIFICATION_TYPE": "U",
    "NORAD_CAT_ID": 42811,
    "ELEMENT_SET_NO": 999,
    "REV_AT_EPOCH": 30049,
    "BSTAR": 3.0014e-5,
    "MEAN_MOTION_DOT": 1.04e-6,
    "MEAN_MOTION_DDOT": 0
  },
  {
    "OBJECT_NAME": "IRIDIUM 121",
    "OBJECT_ID": "2017-039K",
    "EPOCH": "2023-03-22T15:51:54.934272",
    "MEAN_MOTION": 14.34216598,
    "ECCENTRICITY": 0.0002251,
    "INCLINATION": 86.3955,
    "RA_OF_ASC_NODE": 127.9079,
    "ARG_OF_PERICENTER": 91.2416,
    "MEAN_ANOMALY": 268.9038,
    "EPHEMERIS_TYPE": 0,
    "CLASSIFICATION_TYPE": "U",
    "NORAD_CAT_ID": 42812,
    "ELEMENT_SET_NO": 999,
    "REV_AT_EPOCH": 30033,
    "BSTAR": 1.7192e-5,
    "MEAN_MOTION_DOT": 6.8e-7,
    "MEAN_MOTION_DDOT": 0
  },
  {
    "OBJECT_NAME": "IRIDIUM 133",
    "OBJECT_ID": "2017-061A",
    "EPOCH": "2023-03-23T07:01:02.669664",
    "MEAN_MOTION": 14.34218713,
    "ECCENTRICITY": 0.0002014,
    "INCLINATION": 86.4024,
    "RA_OF_ASC_NODE": 159.2128,
    "ARG_OF_PERICENTER": 91.507,
    "MEAN_ANOMALY": 268.6356,
    "EPHEMERIS_TYPE": 0,
    "CLASSIFICATION_TYPE": "U",
    "NORAD_CAT_ID": 42955,
    "ELEMENT_SET_NO": 999,
    "REV_AT_EPOCH": 28537,
    "BSTAR": 0.00016231,
    "MEAN_MOTION_DOT": 4.74e-6,
    "MEAN_MOTION_DDOT": 0
  },
  {
    "OBJECT_NAME": "IRIDIUM 100",
    "OBJECT_ID": "2017-061B",
    "EPOCH": "2023-03-22T17:28:10.737984",
    "MEAN_MOTION": 14.34219639,
    "ECCENTRICITY": 0.0002175,
    "INCLINATION": 86.4022,
    "RA_OF_ASC_NODE": 159.395,
    "ARG_OF_PERICENTER": 96.7708,
    "MEAN_ANOMALY": 263.3736,
    "EPHEMERIS_TYPE": 0,
    "CLASSIFICATION_TYPE": "U",
    "NORAD_CAT_ID": 42956,
    "ELEMENT_SET_NO": 999,
    "REV_AT_EPOCH": 28529,
    "BSTAR": 0.00016404,
    "MEAN_MOTION_DOT": 4.79e-6,
    "MEAN_MOTION_DDOT": 0
  },
  {
    "OBJECT_NAME": "IRIDIUM 122",
    "OBJECT_ID": "2017-061C",
    "EPOCH": "2023-03-23T06:06:14.668416",
    "MEAN_MOTION": 14.34219702,
    "ECCENTRICITY": 0.0001976,
    "INCLINATION": 86.402,
    "RA_OF_ASC_NODE": 159.1725,
    "ARG_OF_PERICENTER": 94.8961,
    "MEAN_ANOMALY": 265.2461,
    "EPHEMERIS_TYPE": 0,
    "CLASSIFICATION_TYPE": "U",
    "NORAD_CAT_ID": 42957,
    "ELEMENT_SET_NO": 999,
    "REV_AT_EPOCH": 28537,
    "BSTAR": 0.00015374,
    "MEAN_MOTION_DOT": 4.5e-6,
    "MEAN_MOTION_DDOT": 0
  },
  {
    "OBJECT_NAME": "IRIDIUM 129",
    "OBJECT_ID": "2017-061D",
    "EPOCH": "2023-03-22T20:39:59.371776",
    "MEAN_MOTION": 14.34219196,
    "ECCENTRICITY": 0.0002126,
    "INCLINATION": 86.4022,
    "RA_OF_ASC_NODE": 159.391,
    "ARG_OF_PERICENTER": 92.5527,
    "MEAN_ANOMALY": 267.5912,
    "EPHEMERIS_TYPE": 0,
    "CLASSIFICATION_TYPE": "U",
    "NORAD_CAT_ID": 42958,
    "ELEMENT_SET_NO": 999,
    "REV_AT_EPOCH": 28533,
    "BSTAR": 0.00016016,
    "MEAN_MOTION_DOT": 4.68e-6,
    "MEAN_MOTION_DDOT": 0
  },
  {
    "OBJECT_NAME": "IRIDIUM 119",
    "OBJECT_ID": "2017-061E",
    "EPOCH": "2023-03-22T19:54:18.883872",
    "MEAN_MOTION": 14.34216841,
    "ECCENTRICITY": 0.0002019,
    "INCLINATION": 86.4023,
    "RA_OF_ASC_NODE": 159.394,
    "ARG_OF_PERICENTER": 91.3985,
    "MEAN_ANOMALY": 268.7442,
    "EPHEMERIS_TYPE": 0,
    "CLASSIFICATION_TYPE": "U",
    "NORAD_CAT_ID": 42959,
    "ELEMENT_SET_NO": 999,
    "REV_AT_EPOCH": 28534,
    "BSTAR": 0.00015994,
    "MEAN_MOTION_DOT": 4.68e-6,
    "MEAN_MOTION_DDOT": 0
  },
  {
    "OBJECT_NAME": "IRIDIUM 107",
    "OBJECT_ID": "2017-061F",
    "EPOCH": "2023-03-22T15:20:18.597696",
    "MEAN_MOTION": 14.34220336,
    "ECCENTRICITY": 0.0002146,
    "INCLINATION": 86.4023,
    "RA_OF_ASC_NODE": 159.4873,
    "ARG_OF_PERICENTER": 95.2653,
    "MEAN_ANOMALY": 264.8788,
    "EPHEMERIS_TYPE": 0,
    "CLASSIFICATION_TYPE": "U",
    "NORAD_CAT_ID": 42960,
    "ELEMENT_SET_NO": 999,
    "REV_AT_EPOCH": 28532,
    "BSTAR": 0.00016574,
    "MEAN_MOTION_DOT": 4.84e-6,
    "MEAN_MOTION_DDOT": 0
  },
  {
    "OBJECT_NAME": "IRIDIUM 132",
    "OBJECT_ID": "2017-061G",
    "EPOCH": "2023-03-22T18:50:23.822016",
    "MEAN_MOTION": 14.34217719,
    "ECCENTRICITY": 0.0002018,
    "INCLINATION": 86.4024,
    "RA_OF_ASC_NODE": 159.4137,
    "ARG_OF_PERICENTER": 103.3904,
    "MEAN_ANOMALY": 256.7516,
    "EPHEMERIS_TYPE": 0,
    "CLASSIFICATION_TYPE": "U",
    "NORAD_CAT_ID": 42961,
    "ELEMENT_SET_NO": 999,
    "REV_AT_EPOCH": 28534,
    "BSTAR": 0.00016009,
    "MEAN_MOTION_DOT": 4.68e-6,
    "MEAN_MOTION_DDOT": 0
  },
  {
    "OBJECT_NAME": "IRIDIUM 136",
    "OBJECT_ID": "2017-061H",
    "EPOCH": "2023-03-23T07:19:18.864480",
    "MEAN_MOTION": 14.34220308,
    "ECCENTRICITY": 0.0002219,
    "INCLINATION": 86.4023,
    "RA_OF_ASC_NODE": 159.1983,
    "ARG_OF_PERICENTER": 89.5132,
    "MEAN_ANOMALY": 270.6318,
    "EPHEMERIS_TYPE": 0,
    "CLASSIFICATION_TYPE": "U",
    "NORAD_CAT_ID": 42962,
    "ELEMENT_SET_NO": 999,
    "REV_AT_EPOCH": 28543,
    "BSTAR": 0.00016847,
    "MEAN_MOTION_DOT": 4.92e-6,
    "MEAN_MOTION_DDOT": 0
  }
]