IRIDIUM 118             
1 42807U 17039E   23082.50461739  .00000440  00000+0  15005-3 0  9992
2 42807  86.3954 127.5343 0002349  93.0231 267.1234 14.34218831300585
IRIDIUM 117             
1 42808U 17039F   23082.17480496  .00000448  00000+0  15278-3 0  9997
2 42808  86.3952 127.6402 0002149  96.3983 263.7458 14.34218648300563
IRIDIUM 126             
1 42809U 17039G   23082.54901416  .00000603  00000+0  20829-3 0  9990
2 42809  86.3954 127.5162 0002113  90.6974 269.4463 14.34219325300591
IRIDIUM 124             
1 42810U 17039H   23081.89225586  .00000347  00000+0  97256-4 0  9990
2 42810  86.4463  64.4883 0002335  98.3369 261.8097 14.43279832304588
IRIDIUM 128             
1 42811U 17039J   23081.70253114  .00000104  00000+0  30014-4 0  9999
2 42811  86.4023 159.3698 0001935  95.4378 264.7039 14.34218527300490
IRIDIUM 121             
1 42812U 17039K   23081.66105248  .00000068  00000+0  17192-4 0  9990
2 42812  86.3955 127.9079 0002251  91.2416 268.9038 14.34216598300331
IRIDIUM 133             
1 42955U 17061A   23082.29239201  .00000474  00000+0  16231-3 0  9993
2 42955  86.4024 159.2128 0002014  91.5070 268.6356 14.34218713285373
IRIDIUM 100             
1 42956U 17061B   23081.72790206  .00000479  00000+0  16404-3 0  9995
2 42956  86.4022 159.3950 0002175  96.7708 263.3736 14.34219639285292
IRIDIUM 122             
1 42957U 17061C   23082.25433644  .00000450  00000+0  15374-3 0  9999
2 42957  86.4020 159.1725 0001976  94.8961 265.2461 14.34219702285373
IRIDIUM 129             
1 42958U 17061D   23081.86110384  .00000468  00000+0  16016-3 0  9992
2 42958  86.4022 159.3910 0002126  92.5527 267.5912 14.34219196285334
IRIDIUM 119             
1 42959U 17061E   23081.82938523  .00000468  00000+0  15994-3 0  9996
2 42959  86.4023 159.3940 0002019  91.3985 268.7442 14.34216841285341
IRIDIUM 107             
1 42960U 17061F   23081.63910414  .00000484  00000+0  16574-3 0  9999
2 42960  86.4023 159.4873 0002146  95.2653 264.8788 14.34220336285327
IRIDIUM 132             
1 42961U 17061G   23081.78499794  .00000468  00000+0  16009-3 0  9994
2 42961  86.4024 159.4137 0002018 103.3904 256.7516 14.34217719285342
IRIDIUM 136             
1 42962U 17061H   23082.30507945  .00000492  00000+0  16847-3 0  9999
2 42962  86.4023 159.1983 0002219  89.5132 270.6318 14.34220308285432
